CALSPHERE 1             
1 00900U 64063C   23028.87423939  .00000674  00000+0  70497-3 0  9994
2 00900  90.1800  45.1334 0028632  65.9628  51.5729 13.74069765901610
CALSPHERE 2             
1 00902U 64063E   23028.78649795  .00000065  00000+0  84763-4 0  9992
2 00902  90.1932  48.3727 0017409 208.3349 326.5952 13.52734702689232
LCS 1                   
1 01361U 65034C   23028.90570670  .00000019  00000+0  14276-2 0  9999
2 01361  32.1359 230.0017 0010592 317.3383  42.6292  9.89302772 87551
TEMPSAT 1               
1 01512U 65065E   23028.78905808  .00000049  00000+0  78103-4 0  9996
2 01512  89.9218 216.9204 0071588 117.1330 254.8225 13.33467392795401
CALSPHERE 4A            
1 01520U 65065H   23028.80879248  .00000119  00000+0  21375-3 0  9992
2 01520  89.9825 129.8801 0068173 349.4764 125.9586 13.35931204797743
OPS 5712 (P/L 160)      
1 02826U 67053A   23028.79383439  .00004246  00000+0  10639-2 0  9996
2 02826  69.9278 119.9669 0005142 346.7680  13.3319 14.52034616885427
OPS 5712 (P/L 153)      
1 02874U 67053H   23028.84540287  .00000027  00000+0  58129-4 0  9992
2 02874  69.9725 242.3564 0007843 337.9465  22.1302 13.96443615834294
SURCAL 150B             
1 02909U 67053J   23028.91513534  .00006621  00000+0  12059-2 0  9990
2 02909  69.9463  97.7595 0003073 330.9688  29.1283 14.66462072896636
RIGIDSPHERE 2 (LCS 4)   
1 05398U 71067E   23028.88425941  .00001159  00000+0  39590-3 0  9996
2 05398  87.6243 320.7981 0063300   3.7562 356.4097 14.34526078696579
COSMOS 2493 (SKRL-756 1)
1 39490U 13078A   23029.53403721  .00002729  00000+0  27803-3 0  9997
2 39490  82.4182  17.4020 0018598  68.6654 291.6547 14.90242725493682
COSMOS 2494 (SKRL-756 2)
1 39491U 13078B   23029.48701776  .00003280  00000+0  32166-3 0  9994
2 39491  82.4185  10.7254 0022604  44.4698 315.8331 14.91761320494021
